OBJECT_NAME,OBJECT_ID,EPOCH,MEAN_MOTION,ECCENTRICITY,INCLINATION,RA_OF_ASC_NODE,ARG_OF_PERICENTER,MEAN_ANOMALY,EPHEMERIS_TYPE,CLASSIFICATION_TYPE,NORAD_CAT_ID,ELEMENT_SET_NO,REV_AT_EPOCH,BSTAR,MEAN_MOTION_DOT,MEAN_MOTION_DDOT
IONOSFERA-M 4,2025-155B,2026-07-16T20:15:07.154784,14.21493393,.0001844,98.6040,158.9222,98.0176,262.1211,0,U,64877,999,5061,.25004E-4,.12E-6,0
MICROCARB,2025-156A,2026-07-16T15:17:53.723904,14.72886012,.0017738,98.0075,274.3193,166.1814,193.9883,0,U,64899,999,5230,.46718E-4,.25E-5,0
CO3D 3,2025-156B,2026-07-16T19:23:21.952608,15.20199424,.0001751,97.4334,276.0752,93.7282,266.4153,0,U,64900,999,5403,.1058E-3,.2223E-4,0
CO3D 4,2025-156C,2026-07-16T19:23:35.105280,15.20193185,.0001671,97.4336,276.0752,148.7006,211.4329,0,U,64901,999,5403,.33406E-4,.655E-5,0
CO3D 2,2025-156D,2026-07-16T12:16:25.372992,15.20207099,.0001246,97.4335,275.6817,90.8794,269.2584,0,U,64902,999,5398,.1012E-3,.2124E-4,0
CO3D 1,2025-156E,2026-07-16T20:10:33.972672,15.20209085,.0001339,97.4335,276.0062,101.3217,258.8169,0,U,64903,999,5403,.10898E-3,.2293E-4,0
PRSC-S1,2025-164A,2026-07-16T19:55:50.130048,15.06643132,.0006979,41.1301,120.8328,208.2205,151.8231,0,U,65055,999,5290,.16188E-3,.2266E-4,0
SENTINEL-6B,2025-264A,2026-07-16T16:14:19.128192,12.80930175,.0007842,66.0412,73.9297,268.5768,91.4349,0,U,66514,999,3094,.87365E-4,-.41E-6,0
CAS500-3,2025-274F,2026-07-16T12:39:24.393024,14.88385623,.0006172,97.7436,124.9112,34.6553,325.5065,0,U,66655,999,3451,.67425E-4,.571E-5,0
CSG-3,2026-001A,2026-07-13T12:40:32.844288,14.82151371,.00015181,97.8894,17.7492,93.3222,266.8165,0,U,67304,999,2836,.2348529E-4,.135E-5,0
PRSC-E03,2026-092A,2026-07-16T16:18:09.079200,15.06812706,.0004992,38.0011,275.7535,260.2262,99.7936,0,U,68835,999,1240,.79376E-4,.1095E-4,0
CAS500-2,2026-100AK,2026-07-16T15:07:07.339584,15.20911913,.0007735,97.3861,94.9254,285.7714,74.2668,0,U,69013,999,1128,.14248E-3,.3084E-4,0
