IONOSFERA-M 4           
1 64877U 25155B   26197.84383281  .00000012  00000+0  25004-4 0  9999
2 64877  98.6040 158.9222 0001844  98.0176 262.1211 14.21493393 50614
MICROCARB               
1 64899U 25156A   26197.63742736  .00000250  00000+0  46718-4 0  9994
2 64899  98.0075 274.3193 0017738 166.1814 193.9883 14.72886012 52309
CO3D 3                  
1 64900U 25156B   26197.80789297  .00002223  00000+0  10580-3 0  9998
2 64900  97.4334 276.0752 0001751  93.7282 266.4153 15.20199424 54031
CO3D 4                  
1 64901U 25156C   26197.80804520  .00000655  00000+0  33406-4 0  9996
2 64901  97.4336 276.0752 0001671 148.7006 211.4329 15.20193185 54033
CO3D 2                  
1 64902U 25156D   26197.51140478  .00002124  00000+0  10120-3 0  9990
2 64902  97.4335 275.6817 0001246  90.8794 269.2584 15.20207099 53986
CO3D 1                  
1 64903U 25156E   26197.84067098  .00002293  00000+0  10898-3 0  9992
2 64903  97.4335 276.0062 0001339 101.3217 258.8169 15.20209085 54032
PRSC-S1                 
1 65055U 25164A   26197.83044132  .00002266  00000+0  16188-3 0  9991
2 65055  41.1301 120.8328 0006979 208.2205 151.8231 15.06643132 52905
SENTINEL-6B             
1 66514U 25264A   26197.67661028 -.00000041  00000+0  87365-4 0  9990
2 66514  66.0412  73.9297 0007842 268.5768  91.4349 12.80930175 30945
CAS500-3                
1 66655U 25274F   26197.52736566  .00000571  00000+0  67425-4 0  9993
2 66655  97.7436 124.9112 0006172  34.6553 325.5065 14.88385623 34515
CSG-3                   
1 67304U 26001A   26194.52815792  .00000135  00000+0  23485-4 0  9994
2 67304  97.8894  17.7492 0001518  93.3222 266.8165 14.82151371 28369
PRSC-E03                
1 68835U 26092A   26197.67927175  .00001095  00000+0  79376-4 0  9998
2 68835  38.0011 275.7535 0004992 260.2262  99.7936 15.06812706 12409
CAS500-2                
1 69013U 26100AK  26197.62994606  .00003084  00000+0  14248-3 0  9991
2 69013  97.3861  94.9254 0007735 285.7714  74.2668 15.20911913 11281
